{
  "type": "FeatureCollection",
  "features": [
    {
      "type": "Feature",
      "properties": {
        "norad_id": 38001,
        "name": "COSMOS 2251 DEB",
        "group": "cosmos-2251-debris",
        "lat": 1.6035273258238645,
        "lon": -43.550330309558156,
        "alt_km": 649.1702377290685,
        "timestamp": "2025-12-10T09:57:45.095901+00:00",
        "meta_object_name": "COSMOS 2251 DEB",
        "meta_object_id": "1993-036BRC",
        "meta_epoch": "2025-12-09T17:00:16.350048",
        "meta_mean_motion": 14.79018783,
        "meta_eccentricity": 0.0065487,
        "meta_inclination": 74.0007,
        "meta_ra_of_asc_node": 138.302,
        "meta_arg_of_pericenter": 288.3389,
        "meta_mean_anomaly": 89.9647,
        "meta_ephemeris_type": 0,
        "meta_classification_type": "U",
        "meta_norad_cat_id": 38001,
        "meta_element_set_no": 999,
        "meta_rev_at_epoch": 74663,
        "meta_bstar": 0.0012033,
        "meta_mean_motion_dot": 9.198e-05,
        "meta_mean_motion_ddot": 0,
        "tle_line1": "1 38001U 93036BRC 25343.70852257  .00009198  00000+0  12033-2 0  9993",
        "tle_line2": "2 38001  74.0007 138.3020 0065487 288.3389  89.9647 14.79018783746637"
      },
      "geometry": {
        "type": "Point",
        "coordinates": [
          -43.550330309558156,
          1.6035273258238645
        ]
      }
    },
    {
      "type": "Feature",
      "properties": {
        "norad_id": 38006,
        "name": "COSMOS 2251 DEB",
        "group": "cosmos-2251-debris",
        "lat": -59.466866920065364,
        "lon": 13.061225995354931,
        "alt_km": 712.0521687730106,
        "timestamp": "2025-12-10T09:57:45.095911+00:00",
        "meta_object_name": "COSMOS 2251 DEB",
        "meta_object_id": "1993-036BRH",
        "meta_epoch": "2025-12-10T03:36:37.956384",
        "meta_mean_motion": 14.45867865,
        "meta_eccentricity": 0.0075854,
        "meta_inclination": 73.8744,
        "meta_ra_of_asc_node": 42.933,
        "meta_arg_of_pericenter": 348.3853,
        "meta_mean_anomaly": 11.555,
        "meta_ephemeris_type": 0,
        "meta_classification_type": "U",
        "meta_norad_cat_id": 38006,
        "meta_element_set_no": 999,
        "meta_rev_at_epoch": 62922,
        "meta_bstar": 0.0047339,
        "meta_mean_motion_dot": 0.00017443,
        "meta_mean_motion_ddot": 0,
        "tle_line1": "1 38006U 93036BRH 25344.15043931  .00017443  00000+0  47339-2 0  9998",
        "tle_line2": "2 38006  73.8744  42.9330 0075854 348.3853  11.5550 14.45867865629228"
      },
      "geometry": {
        "type": "Point",
        "coordinates": [
          13.061225995354931,
          -59.466866920065364
        ]
      }
    },
    {
      "type": "Feature",
      "properties": {
        "norad_id": 38054,
        "name": "COSMOS 2251 DEB",
        "group": "cosmos-2251-debris",
        "lat": 33.70246849911414,
        "lon": -79.33641490906628,
        "alt_km": 1246.0587943713035,
        "timestamp": "2025-12-10T09:57:45.095921+00:00",
        "meta_object_name": "COSMOS 2251 DEB",
        "meta_object_id": "1993-036BRL",
        "meta_epoch": "2025-12-06T19:35:06.065952",
        "meta_mean_motion": 13.62293123,
        "meta_eccentricity": 0.0360398,
        "meta_inclination": 73.9587,
        "meta_ra_of_asc_node": 275.4844,
        "meta_arg_of_pericenter": 254.7432,
        "meta_mean_anomaly": 133.9151,
        "meta_ephemeris_type": 0,
        "meta_classification_type": "U",
        "meta_norad_cat_id": 38054,
        "meta_element_set_no": 999,
        "meta_rev_at_epoch": 67099,
        "meta_bstar": 0.0049752628,
        "meta_mean_motion_dot": 5.934e-05,
        "meta_mean_motion_ddot": 0,
        "tle_line1": "1 38054U 93036BRL 25340.81604243  .00005934  00000+0  49753-2 0  9993",
        "tle_line2": "2 38054  73.9587 275.4844 0360398 254.7432 133.9151 13.62293123670997"
      },
      "geometry": {
        "type": "Point",
        "coordinates": [
          -79.33641490906628,
          33.70246849911414
        ]
      }
    },
    {
      "type": "Feature",
      "properties": {
        "norad_id": 38055,
        "name": "COSMOS 2251 DEB",
        "group": "cosmos-2251-debris",
        "lat": 73.79821822091183,
        "lon": -67.93530817518476,
        "alt_km": 645.6854582421292,
        "timestamp": "2025-12-10T09:57:45.095931+00:00",
        "meta_object_name": "COSMOS 2251 DEB",
        "meta_object_id": "1993-036BRM",
        "meta_epoch": "2025-12-08T09:35:56.658912",
        "meta_mean_motion": 14.76901883,
        "meta_eccentricity": 0.00657195,
        "meta_inclination": 74.0086,
        "meta_ra_of_asc_node": 215.2783,
        "meta_arg_of_pericenter": 343.7571,
        "meta_mean_anomaly": 193.0951,
        "meta_ephemeris_type": 0,
        "meta_classification_type": "U",
        "meta_norad_cat_id": 38055,
        "meta_element_set_no": 999,
        "meta_rev_at_epoch": 60618,
        "meta_bstar": 0.0010877136,
        "meta_mean_motion_dot": 7.901e-05,
        "meta_mean_motion_ddot": 0,
        "tle_line1": "1 38055U 93036BRM 25342.39996133  .00007901  00000+0  10877-2 0  9992",
        "tle_line2": "2 38055  74.0086 215.2783 0065719 343.7571 193.0951 14.76901883606180"
      },
      "geometry": {
        "type": "Point",
        "coordinates": [
          -67.93530817518476,
          73.79821822091183
        ]
      }
    },
    {
      "type": "Feature",
      "properties": {
        "norad_id": 38060,
        "name": "COSMOS 2251 DEB",
        "group": "cosmos-2251-debris",
        "lat": 57.57619125373571,
        "lon": -33.458170954523446,
        "alt_km": 635.4096600155535,
        "timestamp": "2025-12-10T09:57:45.095942+00:00",
        "meta_object_name": "COSMOS 2251 DEB",
        "meta_object_id": "1993-036BRS",
        "meta_epoch": "2025-12-08T15:02:26.401344",
        "meta_mean_motion": 14.63819883,
        "meta_eccentricity": 0.0057903,
        "meta_inclination": 74.0428,
        "meta_ra_of_asc_node": 303.2001,
        "meta_arg_of_pericenter": 50.388,
        "meta_mean_anomaly": 310.2378,
        "meta_ephemeris_type": 0,
        "meta_classification_type": "U",
        "meta_norad_cat_id": 38060,
        "meta_element_set_no": 999,
        "meta_rev_at_epoch": 71904,
        "meta_bstar": 0.0010404,
        "meta_mean_motion_dot": 5.538e-05,
        "meta_mean_motion_ddot": 0,
        "tle_line1": "1 38060U 93036BRS 25342.62669446  .00005538  00000+0  10404-2 0  9998",
        "tle_line2": "2 38060  74.0428 303.2001 0057903  50.3880 310.2378 14.63819883719047"
      },
      "geometry": {
        "type": "Point",
        "coordinates": [
          -33.458170954523446,
          57.57619125373571
        ]
      }
    },
    {
      "type": "Feature",
      "properties": {
        "norad_id": 38062,
        "name": "COSMOS 2251 DEB",
        "group": "cosmos-2251-debris",
        "lat": 46.57045121030566,
        "lon": 97.53421406173759,
        "alt_km": 576.0209138525306,
        "timestamp": "2025-12-10T09:57:45.095952+00:00",
        "meta_object_name": "COSMOS 2251 DEB",
        "meta_object_id": "1993-036BRU",
        "meta_epoch": "2025-12-06T04:12:38.753856",
        "meta_mean_motion": 14.94290132,
        "meta_eccentricity": 0.00122346,
        "meta_inclination": 74.0094,
        "meta_ra_of_asc_node": 303.7202,
        "meta_arg_of_pericenter": 72.1633,
        "meta_mean_anomaly": 298.7726,
        "meta_ephemeris_type": 0,
        "meta_classification_type": "U",
        "meta_norad_cat_id": 38062,
        "meta_element_set_no": 999,
        "meta_rev_at_epoch": 62932,
        "meta_bstar": 0.0035053507,
        "meta_mean_motion_dot": 0.00037877,
        "meta_mean_motion_ddot": 0,
        "tle_line1": "1 38062U 93036BRU 25340.17544854  .00037877  00000+0  35054-2 0  9992",
        "tle_line2": "2 38062  74.0094 303.7202 0012234  72.1633 298.7726 14.94290132629324"
      },
      "geometry": {
        "type": "Point",
        "coordinates": [
          97.53421406173759,
          46.57045121030566
        ]
      }
    },
    {
      "type": "Feature",
      "properties": {
        "norad_id": 38064,
        "name": "COSMOS 2251 DEB",
        "group": "cosmos-2251-debris",
        "lat": 11.153324737653426,
        "lon": 131.7896111671437,
        "alt_km": 724.6952008771668,
        "timestamp": "2025-12-10T09:57:45.095962+00:00",
        "meta_object_name": "COSMOS 2251 DEB",
        "meta_object_id": "1993-036BRW",
        "meta_epoch": "2025-12-08T19:59:17.678400",
        "meta_mean_motion": 14.56247306,
        "meta_eccentricity": 0.00475278,
        "meta_inclination": 74.0223,
        "meta_ra_of_asc_node": 131.5539,
        "meta_arg_of_pericenter": 251.7836,
        "meta_mean_anomaly": 107.8151,
        "meta_ephemeris_type": 0,
        "meta_classification_type": "U",
        "meta_norad_cat_id": 38064,
        "meta_element_set_no": 999,
        "meta_rev_at_epoch": 71808,
        "meta_bstar": 0.0016943453,
        "meta_mean_motion_dot": 7.589e-05,
        "meta_mean_motion_ddot": 0,
        "tle_line1": "1 38064U 93036BRW 25342.83284350  .00007589  00000+0  16943-2 0  9994",
        "tle_line2": "2 38064  74.0223 131.5539 0047527 251.7836 107.8151 14.56247306718080"
      },
      "geometry": {
        "type": "Point",
        "coordinates": [
          131.7896111671437,
          11.153324737653426
        ]
      }
    }
  ]
}